{"type": "FeatureCollection", "features": [ {"type": "Feature", "properties": {"norad_id": 43262, "name": "GAOFEN-1 04", "group": "resource", "lat": -18.605029213536458, "lon": 46.43769520280615, "alt_km": 645.4270187102684, "timestamp": "2025-12-11T20:41:14.744880+00:00", "meta": {"OBJECT_NAME": "GAOFEN-1 04", "OBJECT_ID": "2018-031D", "EPOCH": "2025-12-11T14:15:58.828896", "MEAN_MOTION": 14.76446458, "ECCENTRICITY": 0.00011132, "INCLINATION": 98.0803, "RA_OF_ASC_NODE": 43.4289, "ARG_OF_PERICENTER": 56.3738, "MEAN_ANOMALY": 303.7578, "EPHEMERIS_TYPE": 0, "CLASSIFICATION_TYPE": "U", "NORAD_CAT_ID": 43262, "ELEMENT_SET_NO": 999, "REV_AT_EPOCH": 41500, "BSTAR": 0.00026453351, "MEAN_MOTION_DOT": 1.789e-05, "MEAN_MOTION_DDOT": 0}, "tle": {"line1": "1 43262U 18031D   25345.59443089  .00001789  00000+0  26453-3 0  9998", "line2": "2 43262  98.0803  43.4289 0001113  56.3738 303.7578 14.76446458415007"}}, "geometry": {"type": "Point", "coordinates": [46.43769520280615, -18.605029213536458]}}, {"type": "Feature", "properties": {"norad_id": 43437, "name": "SENTINEL-3B", "group": "resource", "lat": -54.332812068603, "lon": 63.2713354257039, "alt_km": 810.6647775437941, "timestamp": "2025-12-11T20:41:14.744891+00:00", "meta": {"OBJECT_NAME": "SENTINEL-3B", "OBJECT_ID": "2018-039A", "EPOCH": "2025-12-11T10:50:50.552736", "MEAN_MOTION": 14.26742264, "ECCENTRICITY": 0.00015576, "INCLINATION": 98.6268, "RA_OF_ASC_NODE": 50.6556, "ARG_OF_PERICENTER": 104.2946, "MEAN_ANOMALY": 255.8408, "EPHEMERIS_TYPE": 0, "CLASSIFICATION_TYPE": "U", "NORAD_CAT_ID": 43437, "ELEMENT_SET_NO": 999, "REV_AT_EPOCH": 39735, "BSTAR": 0.00012251697, "MEAN_MOTION_DOT": 2.53e-06, "MEAN_MOTION_DDOT": 0}, "tle": {"line1": "1 43437U 18039A   25345.45197399  .00000253  00000+0  12252-3 0  9992", "line2": "2 43437  98.6268  50.6556 0001557 104.2946 255.8408 14.26742264397350"}}, "geometry": {"type": "Point", "coordinates": [63.2713354257039, -54.332812068603]}}, {"type": "Feature", "properties": {"norad_id": 43461, "name": "GAOFEN-5 01", "group": "resource", "lat": -7.676290354053148, "lon": 127.66814347797636, "alt_km": 696.4436126005594, "timestamp": "2025-12-11T20:41:14.744901+00:00", "meta": {"OBJECT_NAME": "GAOFEN-5 01", "OBJECT_ID": "2018-043A", "EPOCH": "2025-12-11T14:53:52.202112", "MEAN_MOTION": 14.60408258, "ECCENTRICITY": 0.00010301, "INCLINATION": 98.4325, "RA_OF_ASC_NODE": 308.5684, "ARG_OF_PERICENTER": 344.6055, "MEAN_ANOMALY": 15.5113, "EPHEMERIS_TYPE": 0, "CLASSIFICATION_TYPE": "U", "NORAD_CAT_ID": 43461, "ELEMENT_SET_NO": 999, "REV_AT_EPOCH": 40431, "BSTAR": 0.00017810233, "MEAN_MOTION_DOT": 8.13e-06, "MEAN_MOTION_DDOT": 0}, "tle": {"line1": "1 43461U 18043A   25345.62074308  .00000813  00000+0  17810-3 0  9994", "line2": "2 43461  98.4325 308.5684 0001030 344.6055  15.5113 14.60408258404312"}}, "geometry": {"type": "Point", "coordinates": [127.66814347797636, -7.676290354053148]}}, {"type": "Feature", "properties": {"norad_id": 43484, "name": "GAOFEN-6", "group": "resource", "lat": 47.03326459557721, "lon": -121.37633740633304, "alt_km": 632.3018737355142, "timestamp": "2025-12-11T20:41:14.744911+00:00", "meta": {"OBJECT_NAME": "GAOFEN-6", "OBJECT_ID": "2018-048A", "EPOCH": "2025-12-11T15:12:44.397216", "MEAN_MOTION": 14.76564877, "ECCENTRICITY": 0.0013283, "INCLINATION": 97.8027, "RA_OF_ASC_NODE": 49.9375, "ARG_OF_PERICENTER": 66.7065, "MEAN_ANOMALY": 293.5542, "EPHEMERIS_TYPE": 0, "CLASSIFICATION_TYPE": "U", "NORAD_CAT_ID": 43484, "ELEMENT_SET_NO": 999, "REV_AT_EPOCH": 40571, "BSTAR": 0.0002668239, "MEAN_MOTION_DOT": 1.815e-05, "MEAN_MOTION_DDOT": 0}, "tle": {"line1": "1 43484U 18048A   25345.63384719  .00001815  00000+0  26682-3 0  9995", "line2": "2 43484  97.8027  49.9375 0013283  66.7065 293.5542 14.76564877405714"}}, "geometry": {"type": "Point", "coordinates": [-121.37633740633304, 47.03326459557721]}}, {"type": "Feature", "properties": {"norad_id": 43585, "name": "GAOFEN-11 01", "group": "resource", "lat": 68.4254380558342, "lon": 30.27824634313105, "alt_km": 413.6414722525233, "timestamp": "2025-12-11T20:41:14.744921+00:00", "meta": {"OBJECT_NAME": "GAOFEN-11 01", "OBJECT_ID": "2018-063A", "EPOCH": "2025-12-11T15:44:14.798112", "MEAN_MOTION": 15.4916437, "ECCENTRICITY": 0.00044231, "INCLINATION": 97.1555, "RA_OF_ASC_NODE": 48.5987, "ARG_OF_PERICENTER": 318.787, "MEAN_ANOMALY": 41.3047, "EPHEMERIS_TYPE": 0, "CLASSIFICATION_TYPE": "U", "NORAD_CAT_ID": 43585, "ELEMENT_SET_NO": 999, "REV_AT_EPOCH": 41125, "BSTAR": 0.00026766097, "MEAN_MOTION_DOT": 0.00014488, "MEAN_MOTION_DDOT": 0}, "tle": {"line1": "1 43585U 18063A   25345.65572683  .00014488  00000+0  26766-3 0  9998", "line2": "2 43585  97.1555  48.5987 0004423 318.7870  41.3047 15.49164370411259"}}, "geometry": {"type": "Point", "coordinates": [30.27824634313105, 68.4254380558342]}}, {"type": "Feature", "properties": {"norad_id": 43613, "name": "ICESAT-2", "group": "resource", "lat": -51.97688695774803, "lon": 57.93333148382684, "alt_km": 487.54585664263504, "timestamp": "2025-12-11T20:41:14.744931+00:00", "meta": {"OBJECT_NAME": "ICESAT-2", "OBJECT_ID": "2018-070A", "EPOCH": "2025-12-11T13:23:24.334656", "MEAN_MOTION": 15.28347411, "ECCENTRICITY": 0.00026313, "INCLINATION": 92.0044, "RA_OF_ASC_NODE": 240.4184, "ARG_OF_PERICENTER": 151.9121, "MEAN_ANOMALY": 208.2271, "EPHEMERIS_TYPE": 0, "CLASSIFICATION_TYPE": "U", "NORAD_CAT_ID": 43613, "ELEMENT_SET_NO": 999, "REV_AT_EPOCH": 40380, "BSTAR": 0.00069918646, "MEAN_MOTION_DOT": 0.00019316, "MEAN_MOTION_DDOT": 0}, "tle": {"line1": "1 43613U 18070A   25345.55792054  .00019316  00000+0  69919-3 0  9995", "line2": "2 43613  92.0044 240.4184 0002631 151.9121 208.2271 15.28347411403806"}}, "geometry": {"type": "Point", "coordinates": [57.93333148382684, -51.97688695774803]}}, {"type": "Feature", "properties": {"norad_id": 43719, "name": "HYSIS", "group": "resource", "lat": 18.77089865721988, "lon": -128.4137241846175, "alt_km": 634.1364510306812, "timestamp": "2025-12-11T20:41:14.744941+00:00", "meta": {"OBJECT_NAME": "HYSIS", "OBJECT_ID": "2018-096A", "EPOCH": "2025-12-11T15:05:23.363232", "MEAN_MOTION": 14.78641119, "ECCENTRICITY": 0.00014487, "INCLINATION": 98.0093, "RA_OF_ASC_NODE": 48.6114, "ARG_OF_PERICENTER": 58.1189, "MEAN_ANOMALY": 302.0163, "EPHEMERIS_TYPE": 0, "CLASSIFICATION_TYPE": "U", "NORAD_CAT_ID": 43719, "ELEMENT_SET_NO": 999, "REV_AT_EPOCH": 37970, "BSTAR": 0.000253198, "MEAN_MOTION_DOT": 1.803e-05, "MEAN_MOTION_DDOT": 0}, "tle": {"line1": "1 43719U 18096A   25345.62874263  .00001803  00000+0  25320-3 0  9991", "line2": "2 43719  98.0093  48.6114 0001448  58.1189 302.0163 14.78641119379701"}}, "geometry": {"type": "Point", "coordinates": [-128.4137241846175, 18.77089865721988]}}, {"type": "Feature", "properties": {"norad_id": 43783, "name": "KAZSTSAT", "group": "resource", "lat": -28.063856283437737, "lon": 25.08845605114531, "alt_km": 570.652559365567, "timestamp": "2025-12-11T20:41:14.744951+00:00", "meta": {"OBJECT_NAME": "KAZSTSAT", "OBJECT_ID": "2018-099AB", "EPOCH": "2025-12-11T12:48:17.481024", "MEAN_MOTION": 14.99347293, "ECCENTRICITY": 0.00059574, "INCLINATION": 97.456, "RA_OF_ASC_NODE": 20.7704, "ARG_OF_PERICENTER": 335.3588, "MEAN_ANOMALY": 24.735, "EPHEMERIS_TYPE": 0, "CLASSIFICATION_TYPE": "U", "NORAD_CAT_ID": 43783, "ELEMENT_SET_NO": 999, "REV_AT_EPOCH": 38318, "BSTAR": 0.00018630058, "MEAN_MOTION_DOT": 2.222e-05, "MEAN_MOTION_DDOT": 0}, "tle": {"line1": "1 43783U 18099AB  25345.53353566  .00002222  00000+0  18630-3 0  9995", "line2": "2 43783  97.4560  20.7704 0005957 335.3588  24.7350 14.99347293383184"}}, "geometry": {"type": "Point", "coordinates": [25.08845605114531, -28.063856283437737]}}, {"type": "Feature", "properties": {"norad_id": 43831, "name": "SAUDISAT 5A", "group": "resource", "lat": -57.86566023816949, "lon": 57.904041108457335, "alt_km": 501.9717019048685, "timestamp": "2025-12-11T20:41:14.744961+00:00", "meta": {"OBJECT_NAME": "SAUDISAT 5A", "OBJECT_ID": "2018-102A", "EPOCH": "2025-12-11T14:38:51.692064", "MEAN_MOTION": 15.25634032, "ECCENTRICITY": 0.00117818, "INCLINATION": 97.3353, "RA_OF_ASC_NODE": 45.8229, "ARG_OF_PERICENTER": 79.8356, "MEAN_ANOMALY": 280.4211, "EPHEMERIS_TYPE": 0, "CLASSIFICATION_TYPE": "U", "NORAD_CAT_ID": 43831, "ELEMENT_SET_NO": 999, "REV_AT_EPOCH": 38705, "BSTAR": 0.00037438744, "MEAN_MOTION_DOT": 9.472e-05, "MEAN_MOTION_DDOT": 0}, "tle": {"line1": "1 43831U 18102A   25345.61032051  .00009472  00000+0  37439-3 0  9998", "line2": "2 43831  97.3353  45.8229 0011781  79.8356 280.4211 15.25634032387059"}}, "geometry": {"type": "Point", "coordinates": [57.904041108457335, -57.86566023816949]}}, {"type": "Feature", "properties": {"norad_id": 43833, "name": "SAUDISAT 5B", "group": "resource", "lat": -7.51664921623507, "lon": 49.78184362348483, "alt_km": 491.5452257636289, "timestamp": "2025-12-11T20:41:14.744971+00:00", "meta": {"OBJECT_NAME": "SAUDISAT 5B", "OBJECT_ID": "2018-102C", "EPOCH": "2025-12-11T14:25:32.051424", "MEAN_MOTION": 15.26000583, "ECCENTRICITY": 0.00124689, "INCLINATION": 97.3447, "RA_OF_ASC_NODE": 48.5503, "ARG_OF_PERICENTER": 81.9882, "MEAN_ANOMALY": 278.277, "EPHEMERIS_TYPE": 0, "CLASSIFICATION_TYPE": "U", "NORAD_CAT_ID": 43833, "ELEMENT_SET_NO": 999, "REV_AT_EPOCH": 38716, "BSTAR": 0.00073813372, "MEAN_MOTION_DOT": 0.00018979, "MEAN_MOTION_DDOT": 0}, "tle": {"line1": "1 43833U 18102C   25345.60106541  .00018979  00000+0  73813-3 0  9993", "line2": "2 43833  97.3447  48.5503 0012468  81.9882 278.2770 15.26000583387167"}}, "geometry": {"type": "Point", "coordinates": [49.78184362348483, -7.51664921623507]}}]}